OBJECT_NAME,OBJECT_ID,EPOCH,MEAN_MOTION,ECCENTRICITY,INCLINATION,RA_OF_ASC_NODE,ARG_OF_PERICENTER,MEAN_ANOMALY,EPHEMERIS_TYPE,CLASSIFICATION_TYPE,NORAD_CAT_ID,ELEMENT_SET_NO,REV_AT_EPOCH,BSTAR,MEAN_MOTION_DOT,MEAN_MOTION_DDOT
ASTRA 1M,2008-057A,2026-06-27T04:02:33.432864,1.00269530,.00049433,0.3219,82.6406,26.4725,246.2083,0,U,33436,999,4583,0,.132E-5,0
EUTELSAT HOTBIRD 13C,2008-065A,2026-06-27T04:50:38.683104,1.00273230,.00035134,2.9755,79.0809,13.8298,204.7553,0,U,33459,999,4744,0,-.274E-5,0
EXPRESS-AM44,2009-007A,2026-06-27T03:53:56.758272,1.00271912,.00043047,3.4895,78.2796,9.2021,235.2634,0,U,33595,999,5238,0,-.81E-6,0
NSS-9,2009-008A,2026-06-26T20:17:38.721120,1.00269944,.00024525,1.2865,82.5820,1.2885,318.5783,0,U,33749,999,6361,0,.82E-6,0
TELSTAR 11N,2009-009A,2026-06-27T05:29:00.467232,1.00269262,.00027858,0.0270,15.4128,81.4032,223.2304,0,U,34111,999,4634,0,0,0
WGS F2 (USA 204),2009-017A,2026-06-27T04:13:32.379744,1.00265652,.00003967,0.0181,11.3165,58.8236,326.0501,0,U,34713,999,4571,0,.8E-6,0
SES-7 (PROTOSTAR 2),2009-027A,2026-06-27T01:02:41.868960,1.00270633,.00003836,0.0376,66.4293,325.7458,6.8991,0,U,34941,999,6272,0,-.333E-5,0
MEASAT-3A,2009-032A,2026-06-27T04:42:45.886752,1.00272501,.00032706,0.0310,321.2495,126.6000,58.1590,0,U,35362,999,813,0,-.99E-6,0
GOES 14,2009-033A,2026-06-27T00:27:51.586848,1.00108179,.00022514,1.7153,82.9344,19.2331,316.0256,0,U,35491,999,668,0,-.314E-5,0
FM-5,2009-034A,2026-06-27T04:33:38.624832,1.00271055,.00008291,0.0266,288.2610,58.7185,270.5709,0,U,35493,999,4674,0,-.188E-5,0
TERRESTAR-1,2009-035A,2026-06-27T05:08:05.731872,1.00273246,.0002669,5.1807,48.7915,41.7751,150.7757,0,U,35496,999,6223,0,-.5E-6,0
ASIASAT 5,2009-042A,2026-06-27T01:00:27.084096,1.00268499,.00013749,0.0143,47.7536,39.0202,303.9753,0,U,35696,999,6180,0,-.295E-5,0
JCSAT-12 (JCSAT-RA),2009-044A,2026-06-27T01:09:18.734400,1.00271305,.00001792,0.0108,336.4785,243.9666,204.0839,0,U,35755,999,6170,0,-.316E-5,0
OPTUS D3,2009-044B,2026-06-26T23:33:28.933632,1.00271547,.00033237,0.8804,268.7101,185.8594,330.0343,0,U,35756,999,6166,0,-.133E-5,0
NIMIQ 5,2009-050A,2026-06-27T04:25:38.699616,1.00270953,.00029829,0.0371,274.4062,172.4391,182.1634,0,U,35873,999,6144,0,-.245E-5,0
AMAZONAS 2,2009-054A,2026-06-27T04:25:38.699616,1.00270891,.00035505,1.8411,82.9328,15.1957,171.5872,0,U,35942,999,6128,0,-.249E-5,0
COMSATBW-1,2009-054B,2026-06-27T04:14:39.772608,1.00271595,.00031605,0.0612,136.7376,319.9619,305.2646,0,U,35943,999,6140,0,.36E-6,0
NSS-12,2009-058A,2026-06-27T04:13:24.892320,1.00270195,.00050619,0.0750,276.7425,147.7132,331.1866,0,U,36032,999,6101,0,.83E-6,0
THOR 6,2009-058B,2026-06-27T03:56:48.982848,1.00269438,.00021289,0.0142,357.4556,107.8416,228.3580,0,U,36033,999,6110,0,0,0
INTELSAT 14 (IS-14),2009-064A,2026-06-27T04:50:38.683104,1.00272388,.00026887,0.0164,23.6686,71.9109,207.4003,0,U,36097,999,6070,0,-.262E-5,0
EUTELSAT 36B,2009-065A,2026-06-27T04:11:32.572320,1.00273041,.00058373,0.5160,81.2334,13.1344,294.2885,0,U,36101,999,6080,0,.123E-5,0
INTELSAT 15 (IS-15),2009-067A,2026-06-27T02:38:47.386752,1.00271495,.00025445,0.0141,46.2513,54.0730,299.7482,0,U,36106,999,4132,0,-.173E-5,0
WGS F3 (USA 211),2009-068A,2026-06-27T05:02:43.746720,1.00276688,.00004417,0.3146,85.8489,313.6098,181.5589,0,U,36108,999,4669,0,.75E-6,0
DIRECTV 12,2009-075A,2026-06-27T05:10:28.005024,1.00270719,.00004352,0.0115,111.5028,21.3310,117.3856,0,U,36131,999,4665,0,-.92E-6,0
BEIDOU-2 G1,2010-001A,2026-06-27T06:22:01.384320,1.00273214,.00023468,4.3172,60.3837,308.7321,142.2408,0,U,36287,999,6027,0,-.272E-5,0
SDO,2010-005A,2026-06-27T04:35:33.909216,1.00270707,.00015432,34.6718,86.1902,47.5702,108.2410,0,U,36395,999,6016,0,-.95E-6,0
INTELSAT 16 (IS-16),2010-006A,2026-06-27T04:33:38.624832,1.00272223,.00024251,0.0135,38.6810,70.9486,157.8845,0,U,36397,999,5975,0,-.233E-5,0
EWS-G2 (GOES 15),2010-008A,2026-06-27T02:32:32.985312,1.00268050,.00053458,1.3045,82.7132,43.3637,250.8305,0,U,36411,999,5973,0,.31E-6,0
ECHOSTAR 14,2010-010A,2026-06-27T05:05:50.947872,1.00270786,.00024841,0.0244,284.7207,171.1487,137.0224,0,U,36499,999,4665,0,.12E-6,0
SES-1,2010-016A,2026-06-27T05:10:57.957312,1.00271817,.00029905,0.0283,303.7083,147.9397,160.4179,0,U,36516,999,5913,0,-.103E-5,0
ASTRA 3B,2010-021A,2026-06-27T04:03:48.313152,1.00268280,.00041987,1.4948,83.4383,9.6535,266.6571,0,U,36581,999,5896,0,.147E-5,0
COMSATBW-2,2010-021B,2026-06-27T04:00:48.601152,1.00268691,.00026199,0.0493,184.2969,277.1277,247.3191,0,U,36582,999,5905,0,.1E-5,0
