ASTRA 1M                
1 33436U 08057A   26178.16844251  .00000132  00000+0  00000+0 0  9998
2 33436   0.3219  82.6406 0004943  26.4725 246.2083  1.00269530 45839
EUTELSAT HOTBIRD 13C    
1 33459U 08065A   26178.20183661 -.00000274  00000+0  00000+0 0  9996
2 33459   2.9755  79.0809 0003513  13.8298 204.7553  1.00273230 47443
EXPRESS-AM44            
1 33595U 09007A   26178.16246248 -.00000081  00000+0  00000+0 0  9996
2 33595   3.4895  78.2796 0004304   9.2021 235.2634  1.00271912 52386
NSS-9                   
1 33749U 09008A   26177.84558705  .00000082  00000+0  00000+0 0  9996
2 33749   1.2865  82.5820 0002452   1.2885 318.5783  1.00269944 63618
TELSTAR 11N             
1 34111U 09009A   26178.22847763  .00000000  00000+0  00000+0 0  9999
2 34111   0.0270  15.4128 0002785  81.4032 223.2304  1.00269262 46343
WGS F2 (USA 204)        
1 34713U 09017A   26178.17606921  .00000080  00000+0  00000+0 0  9997
2 34713   0.0181  11.3165 0000396  58.8236 326.0501  1.00265652 45718
SES-7 (PROTOSTAR 2)     
1 34941U 09027A   26178.04354015 -.00000333  00000+0  00000+0 0  9993
2 34941   0.0376  66.4293 0000383 325.7458   6.8991  1.00270633 62729
MEASAT-3A               
1 35362U 09032A   26178.19636443 -.00000099  00000+0  00000+0 0  9990
2 35362   0.0310 321.2495 0003270 126.6000  58.1590  1.00272501  8136
GOES 14                 
1 35491U 09033A   26178.01934707 -.00000314  00000+0  00000+0 0  9999
2 35491   1.7153  82.9344 0002251  19.2331 316.0256  1.00108179  6680
FM-5                    
1 35493U 09034A   26178.19003038 -.00000188  00000+0  00000+0 0  9994
2 35493   0.0266 288.2610 0000829  58.7185 270.5709  1.00271055 46742
TERRESTAR-1             
1 35496U 09035A   26178.21395523 -.00000050  00000+0  00000+0 0  9992
2 35496   5.1807  48.7915 0002669  41.7751 150.7757  1.00273246 62232
ASIASAT 5               
1 35696U 09042A   26178.04198014 -.00000295  00000+0  00000+0 0  9990
2 35696   0.0143  47.7536 0001374  39.0202 303.9753  1.00268499 61806
JCSAT-12 (JCSAT-RA)     
1 35755U 09044A   26178.04813350 -.00000316  00000+0  00000+0 0  9999
2 35755   0.0108 336.4785 0000179 243.9666 204.0839  1.00271305 61704
OPTUS D3                
1 35756U 09044B   26177.98158488 -.00000133  00000+0  00000+0 0  9993
2 35756   0.8804 268.7101 0003323 185.8594 330.0343  1.00271547 61666
NIMIQ 5                 
1 35873U 09050A   26178.18447569 -.00000245  00000+0  00000+0 0  9998
2 35873   0.0371 274.4062 0002982 172.4391 182.1634  1.00270953 61449
AMAZONAS 2              
1 35942U 09054A   26178.18447569 -.00000249  00000+0  00000+0 0  9993
2 35942   1.8411  82.9328 0003550  15.1957 171.5872  1.00270891 61289
COMSATBW-1              
1 35943U 09054B   26178.17684922  .00000036  00000+0  00000+0 0  9992
2 35943   0.0612 136.7376 0003160 319.9619 305.2646  1.00271595 61403
NSS-12                  
1 36032U 09058A   26178.17598255  .00000083  00000+0  00000+0 0  9991
2 36032   0.0750 276.7425 0005061 147.7132 331.1866  1.00270195 61019
THOR 6                  
1 36033U 09058B   26178.16445582  .00000000  00000+0  00000+0 0  9994
2 36033   0.0142 357.4556 0002128 107.8416 228.3580  1.00269438 61108
INTELSAT 14 (IS-14)     
1 36097U 09064A   26178.20183661 -.00000262  00000+0  00000+0 0  9994
2 36097   0.0164  23.6686 0002688  71.9109 207.4003  1.00272388 60700
EUTELSAT 36B            
1 36101U 09065A   26178.17468255  .00000123  00000+0  00000+0 0  9997
2 36101   0.5160  81.2334 0005837  13.1344 294.2885  1.00273041 60805
INTELSAT 15 (IS-15)     
1 36106U 09067A   26178.11027068 -.00000173  00000+0  00000+0 0  9997
2 36106   0.0141  46.2513 0002544  54.0730 299.7482  1.00271495 41329
WGS F3 (USA 211)        
1 36108U 09068A   26178.21022855  .00000075  00000+0  00000+0 0  9990
2 36108   0.3146  85.8489 0000441 313.6098 181.5589  1.00276688 46695
DIRECTV 12              
1 36131U 09075A   26178.21560191 -.00000092  00000+0  00000+0 0  9994
2 36131   0.0115 111.5028 0000435  21.3310 117.3856  1.00270719 46652
BEIDOU-2 G1             
1 36287U 10001A   26178.26529380 -.00000272  00000+0  00000+0 0  9997
2 36287   4.3172  60.3837 0002346 308.7321 142.2408  1.00273214 60277
SDO                     
1 36395U 10005A   26178.19136469 -.00000095  00000+0  00000+0 0  9998
2 36395  34.6718  86.1902 0001543  47.5702 108.2410  1.00270707 60164
INTELSAT 16 (IS-16)     
1 36397U 10006A   26178.19003038 -.00000233  00000+0  00000+0 0  9990
2 36397   0.0135  38.6810 0002425  70.9486 157.8845  1.00272223 59755
EWS-G2 (GOES 15)        
1 36411U 10008A   26178.10593733  .00000031  00000+0  00000+0 0  9991
2 36411   1.3045  82.7132 0005345  43.3637 250.8305  1.00268050 59735
ECHOSTAR 14             
1 36499U 10010A   26178.21239523  .00000012  00000+0  00000+0 0  9995
2 36499   0.0244 284.7207 0002484 171.1487 137.0224  1.00270786 46651
SES-1                   
1 36516U 10016A   26178.21594858 -.00000103  00000+0  00000+0 0  9998
2 36516   0.0283 303.7083 0002990 147.9397 160.4179  1.00271817 59133
ASTRA 3B                
1 36581U 10021A   26178.16930918  .00000147  00000+0  00000+0 0  9998
2 36581   1.4948  83.4383 0004198   9.6535 266.6571  1.00268280 58968
COMSATBW-2              
1 36582U 10021B   26178.16722918  .00000100  00000+0  00000+0 0  9997
2 36582   0.0493 184.2969 0002619 277.1277 247.3191  1.00268691 59051
